{
  "57942": {
    "noradId": "57942",
    "tle": [
      "1 57942C 23148H   26007.86854167  .00060174  00000+0  20264-2 0    78",
      "2 57942  53.1583 306.9978 0001308  88.2810 345.4380 15.30158139    19"
    ]
  },
  "57943": {
    "noradId": "57943",
    "tle": [
      "1 57943C 23148J   26007.87062500 -.00008151  00000+0 -27465-3 0    72",
      "2 57943  53.1589 306.9765 0001212  78.6801  76.3085 15.30207492    16"
    ]
  },
  "57944": {
    "noradId": "57944",
    "tle": [
      "1 57944C 23148K   26007.86506944 -.00010711  00000+0 -36090-3 0    76",
      "2 57944  53.1604 306.7853 0001239  83.8332 151.0419 15.30211739    18"
    ]
  },
  "57945": {
    "noradId": "57945",
    "tle": [
      "1 57945C 23148L   26007.86854167 -.00005842  00000+0 -19684-3 0    79",
      "2 57945  53.1596 306.8872 0001163  94.5606 101.2902 15.30204802    17"
    ]
  },
  "57946": {
    "noradId": "57946",
    "tle": [
      "1 57946C 23148M   26007.86854167 -.00008561  00000+0 -28848-3 0    73",
      "2 57946  53.1590  23.9550 0001171  91.0556 347.4936 15.30205764    16"
    ]
  },
  "57947": {
    "noradId": "57947",
    "tle": [
      "1 57947C 23148N   26007.86993056 -.00018029  00000+0 -60753-3 0    76",
      "2 57947  53.1593 306.9390 0001341  92.3783  76.2362 15.30215774    13"
    ]
  },
  "57949": {
    "noradId": "57949",
    "tle": [
      "1 57949C 23148Q   26007.86993056 -.00008528  00000+0 -28735-3 0    75",
      "2 57949  53.1595 306.9090 0001280  89.7463  96.3220 15.30206638    16"
    ]
  },
  "57950": {
    "noradId": "57950",
    "tle": [
      "1 57950C 23148R   26007.86368056 -.00011185  00000+0 -37690-3 0    76",
      "2 57950  53.1604 306.8526 0001402  83.7796 102.7452 15.30209278    13"
    ]
  },
  "57951": {
    "noradId": "57951",
    "tle": [
      "1 57951C 23148S   26007.84562500 -.00005332  00000+0 -17966-3 0    76",
      "2 57951  53.1604 306.8901 0001344  81.5267  28.7490 15.30203701    19"
    ]
  },
  "57952": {
    "noradId": "57952",
    "tle": [
      "1 57952C 23148T   26007.86645833 -.00016476  00000+0 -55521-3 0    70",
      "2 57952  53.1596 306.6446 0001261  84.2568 228.0680 15.30213712    13"
    ]
  },
  "57953": {
    "noradId": "57953",
    "tle": [
      "1 57953C 23148U   26007.86854167  .00031439  00000+0  10588-2 0    70",
      "2 57953  53.1591 296.7233 0001350  74.0713  40.0929 15.30185415    16"
    ]
  },
  "57954": {
    "noradId": "57954",
    "tle": [
      "1 57954C 23148V   26007.86576389 -.00003700  00000+0 -12467-3 0    79",
      "2 57954  53.1580 296.6966 0001301  90.5539 153.6064 15.30201770    16"
    ]
  },
  "57955": {
    "noradId": "57955",
    "tle": [
      "1 57955C 23148W   26007.86645833 -.00014591  00000+0 -49170-3 0    72",
      "2 57955  53.1577 296.7340 0001262  88.7066 136.0134 15.30210562    12"
    ]
  },
  "57964": {
    "noradId": "57964",
    "tle": [
      "1 57964C 23151A   26007.84840278 -.00001175  00000+0 -86685-4 0    71",
      "2 57964  43.0029 309.4649 0001293 277.1833 337.2919 15.02543548    14"
    ]
  },
  "57965": {
    "noradId": "57965",
    "tle": [
      "1 57965C 23151B   26007.85673611  .00013404  00000+0  98868-3 0    79",
      "2 57965  43.0035 309.0541 0001379 263.6322 192.1651 15.02535942    17"
    ]
  },
  "57966": {
    "noradId": "57966",
    "tle": [
      "1 57966C 23151C   26007.86645833 -.00013987  00000+0 -10327-2 0    77",
      "2 57966  43.0034 309.0894 0001370 271.6625 194.9597 15.02524742    19"
    ]
  },
  "57967": {
    "noradId": "57967",
    "tle": [
      "1 57967C 23151D   26007.86854167 -.00007026  00000+0 -51836-3 0    78",
      "2 57967  43.0026 309.0379 0001125 269.0465 226.7336 15.02547244    17"
    ]
  },
  "57968": {
    "noradId": "57968",
    "tle": [
      "1 57968C 23151E   26007.86923611 -.00000470  00000+0 -34705-4 0    73",
      "2 57968  43.0028 309.4148 0001271 264.1462  73.1111 15.02539044    17"
    ]
  },
  "57970": {
    "noradId": "57970",
    "tle": [
      "1 57970C 23151G   26007.86576389  .00000359  00000+0  63296-5 0    74",
      "2 57970  42.9721 180.5652 0001731 289.4000 208.0862 15.49549383    15"
    ]
  },
  "57971": {
    "noradId": "57971",
    "tle": [
      "1 57971C 23151H   26007.87131944  .00010952  00000+0  80811-3 0    70",
      "2 57971  43.0026 309.4625 0001296 262.3641  56.1576 15.02524678    18"
    ]
  },
  "57972": {
    "noradId": "57972",
    "tle": [
      "1 57972C 23151J   26007.86645833 -.00007061  00000+0 -52099-3 0    73",
      "2 57972  43.0031 309.6999 0001100 257.1314 304.8892 15.02543123    14"
    ]
  },
  "57973": {
    "noradId": "57973",
    "tle": [
      "1 57973C 23151K   26007.86993056 -.00018897  00000+0 -13941-2 0    78",
      "2 57973  43.0025 309.5299 0001136 271.3349  15.5760 15.02561908    16"
    ]
  },
  "57974": {
    "noradId": "57974",
    "tle": [
      "1 57974C 23151L   26007.86784722  .00011091  00000+0  81833-3 0    70",
      "2 57974  43.0034 309.0140 0001222 264.1978 233.8601 15.02527267    10"
    ]
  },
  "57975": {
    "noradId": "57975",
    "tle": [
      "1 57975C 23151M   26007.86854167  .00009204  00000+0  67900-3 0    74",
      "2 57975  43.0027 309.6140 0001127 263.9514 333.4189 15.02532625    18"
    ]
  },
  "57976": {
    "noradId": "57976",
    "tle": [
      "1 57976C 23151N   26007.87131944  .00001808  00000+0  13335-3 0    72",
      "2 57976  43.0033 309.1640 0001020 284.9673 135.7415 15.02538797    18"
    ]
  },
  "57977": {
    "noradId": "57977",
    "tle": [
      "1 57977C 23151P   26007.86784722  .00014262  00000+0  10523-2 0    73",
      "2 57977  43.0033 322.6656 0001255 268.0219 200.9508 15.02523606    16"
    ]
  },
  "57978": {
    "noradId": "57978",
    "tle": [
      "1 57978C 23151Q   26007.86645833  .00010597  00000+0  78126-3 0    74",
      "2 57978  43.0035 322.5871 0001117 266.3624 231.1464 15.02557321    13"
    ]
  },
  "57979": {
    "noradId": "57979",
    "tle": [
      "1 57979C 23151R   26007.87062500  .00015155  00000+0  11181-2 0    72",
      "2 57979  43.0031 322.5170 0001410 271.6921 266.3706 15.02523486    11"
    ]
  },
  "57980": {
    "noradId": "57980",
    "tle": [
      "1 57980C 23151S   26007.87131944  .00211500  00000+0  38792-2 0    72",
      "2 57980  42.9922 213.1309 0019723 266.4824 105.4368 15.47975104    13"
    ]
  },
  "57981": {
    "noradId": "57981",
    "tle": [
      "1 57981C 23151T   26007.86923611  .00014014  00000+0  10340-2 0    72",
      "2 57981  43.0032 322.4864 0001312 266.6306 281.9922 15.02522383    14"
    ]
  },
  "57982": {
    "noradId": "57982",
    "tle": [
      "1 57982C 23151U   26007.87131944  .00012150  00000+0  89648-3 0    71",
      "2 57982  43.0031 322.4317 0001192 264.2225 313.7083 15.02525570    10"
    ]
  },
  "57983": {
    "noradId": "57983",
    "tle": [
      "1 57983C 23151V   26007.86923611  .00013171  00000+0  97180-3 0    75",
      "2 57983  43.0036 322.3986 0001205 270.6395 314.0450 15.02523532    19"
    ]
  },
  "57984": {
    "noradId": "57984",
    "tle": [
      "1 57984C 23151W   26007.86645833  .00013238  00000+0  97669-3 0    79",
      "2 57984  43.0032 322.3715 0001248 263.5007 324.1620 15.02526746    15"
    ]
  },
  "57985": {
    "noradId": "57985",
    "tle": [
      "1 57985C 23151X   26007.87201389  .00014676  00000+0  10828-2 0    73",
      "2 57985  43.0036 322.2957 0001385 262.7436  13.0542 15.02525729    13"
    ]
  },
  "57991": {
    "noradId": "57991",
    "tle": [
      "1 57991C 23153A   26007.87062500 -.00003415  00000+0 -25202-3 0    76",
      "2 57991  43.0036  39.5947 0001291 271.8154  77.3748 15.02534054    13"
    ]
  },
  "57992": {
    "noradId": "57992",
    "tle": [
      "1 57992C 23153B   26007.86576389 -.00002358  00000+0 -17405-3 0    72",
      "2 57992  43.0037  39.7448 0001335 263.8142   4.9638 15.02531124    19"
    ]
  },
  "57993": {
    "noradId": "57993",
    "tle": [
      "1 57993C 23153C   26007.86576389 -.00000035  00000+0 -25983-5 0    75",
      "2 57993  43.0034  39.5330 0001374 266.5572  92.3487 15.02536055    16"
    ]
  },
  "57994": {
    "noradId": "57994",
    "tle": [
      "1 57994C 23153D   26007.86645833 -.00003135  00000+0 -23131-3 0    72",
      "2 57994  43.0033  39.4396 0001245 276.7917 121.9210 15.02540909    16"
    ]
  },
  "57995": {
    "noradId": "57995",
    "tle": [
      "1 57995C 23153E   26007.86576389 -.00001951  00000+0 -14392-3 0    75",
      "2 57995  43.0033  39.3999 0001473 267.8482 145.1403 15.02540891    18"
    ]
  },
  "57997": {
    "noradId": "57997",
    "tle": [
      "1 57997C 23153G   26007.86506944  .00001585  00000+0  11694-3 0    70",
      "2 57997  43.0034  39.4937 0001419 262.3964 110.7863 15.02533311    16"
    ]
  },
  "57998": {
    "noradId": "57998",
    "tle": [
      "1 57998C 23153H   26007.86506944  .00002210  00000+0  16304-3 0    70",
      "2 57998  43.0036  39.0231 0001438 263.6535 307.8722 15.02536251    10"
    ]
  },
  "57999": {
    "noradId": "57999",
    "tle": [
      "1 57999C 23153J   26007.86715278 -.00001175  00000+0 -86689-4 0    78",
      "2 57999  43.0032  39.3093 0001364 271.4602 185.1123 15.02536262    10"
    ]
  },
  "58000": {
    "noradId": "58000",
    "tle": [
      "1 58000C 23153K   26007.86993056 -.00004754  00000+0 -35080-3 0    78",
      "2 58000  43.0035  39.2480 0001437 268.0761 221.5795 15.02541080    19"
    ]
  },
  "58001": {
    "noradId": "58001",
    "tle": [
      "1 58001C 23153L   26007.86576389  .00004753  00000+0  35076-3 0    77",
      "2 58001  43.0035  39.2284 0001458 249.5558 235.4829 15.02526111    13"
    ]
  },
  "58002": {
    "noradId": "58002",
    "tle": [
      "1 58002C 23153M   26007.86645833 -.00000664  00000+0 -49002-4 0    73",
      "2 58002  43.0034  39.6807 0001384 261.4604  29.1007 15.02534715    16"
    ]
  }
}